[{"OBJECT_NAME":"JY1SAT (JO-97)","OBJECT_ID":"2018-099AX","EPOCH":"2026-03-09T16:28:19.890048","MEAN_MOTION":15.30302629,"ECCENTRICITY":0.00047232,"INCLINATION":97.4249,"RA_OF_ASC_NODE":131.3625,"ARG_OF_PERICENTER":256.6795,"MEAN_ANOMALY":103.3919,"EPHEMERIS_TYPE":0,"CLASSIFICATION_TYPE":"U","NORAD_CAT_ID":43803,"ELEMENT_SET_NO":999,"REV_AT_EPOCH":39839,"BSTAR":0.00060804308,"MEAN_MOTION_DOT":0.00017774,"MEAN_MOTION_DDOT":0},{"OBJECT_NAME":"STARLINK-32585","OBJECT_ID":"2024-209Q","EPOCH":"2026-03-09T11:48:19.613952","MEAN_MOTION":15.30187335,"ECCENTRICITY":9.891e-5,"INCLINATION":53.1573,"RA_OF_ASC_NODE":143.5338,"ARG_OF_PERICENTER":86.4281,"MEAN_ANOMALY":273.6833,"EPHEMERIS_TYPE":0,"CLASSIFICATION_TYPE":"U","NORAD_CAT_ID":61953,"ELEMENT_SET_NO":999,"REV_AT_EPOCH":7486,"BSTAR":0.00083941913,"MEAN_MOTION_DOT":0.00024575,"MEAN_MOTION_DDOT":0}]
