JY1SAT (JO-97)          
1 43803U 18099AX  26068.68634132  .00017774  00000+0  60804-3 0  9996
2 43803  97.4249 131.3625 0004723 256.6795 103.3919 15.30302628398390
STARLINK-32585          
1 61953U 24209Q   26068.49189368  .00024575  00000+0  83942-3 0  9992
2 61953  53.1573 143.5338 0000989  86.4281 273.6833 15.30187335 74865
